SL-8 DEB                
1 09569U 73098D   22259.51790589  .00004698  00000+0  51786-3 0  9996
2 09569  74.0524 154.7587 0011748 205.8607 154.1988 14.87757704706794